[{"OBJECT_NAME":"STARLINK-3450","OBJECT_ID":"2022-016W","EPOCH":"2026-03-09T22:00:36.922464","MEAN_MOTION":15.08842875,"ECCENTRICITY":0.00015667,"INCLINATION":53.2194,"RA_OF_ASC_NODE":318.099,"ARG_OF_PERICENTER":102.9267,"MEAN_ANOMALY":257.19,"EPHEMERIS_TYPE":0,"CLASSIFICATION_TYPE":"U","NORAD_CAT_ID":51734,"ELEMENT_SET_NO":999,"REV_AT_EPOCH":22359,"BSTAR":-3.4221182e-5,"MEAN_MOTION_DOT":-8.33e-6,"MEAN_MOTION_DDOT":0},{"OBJECT_NAME":"KUIPER-00164","OBJECT_ID":"2025-301B","EPOCH":"2026-03-09T22:00:01.999584","MEAN_MOTION":15.08488187,"ECCENTRICITY":0.00045568,"INCLINATION":51.8847,"RA_OF_ASC_NODE":66.2292,"ARG_OF_PERICENTER":84.8156,"MEAN_ANOMALY":198.9561,"EPHEMERIS_TYPE":0,"CLASSIFICATION_TYPE":"U","NORAD_CAT_ID":67134,"ELEMENT_SET_NO":999,"REV_AT_EPOCH":541,"BSTAR":0.00024752424,"MEAN_MOTION_DOT":3.618e-5,"MEAN_MOTION_DDOT":0}]
